{
  "type": "FeatureCollection",
  "features": [
    {
      "type": "Feature",
      "properties": {
        "norad_id": 43783,
        "name": "KAZSTSAT",
        "group": "resource",
        "lat": 22.703485953410738,
        "lon": -146.8018190018018,
        "alt_km": 571.5548373873044,
        "timestamp": "2025-12-21T05:44:51.233534+00:00",
        "meta_object_name": "KAZSTSAT",
        "meta_object_id": "2018-099AB",
        "meta_epoch": "2025-12-20T08:13:38.358048",
        "meta_mean_motion": 14.99364446,
        "meta_eccentricity": 0.00059921,
        "meta_inclination": 97.453,
        "meta_ra_of_asc_node": 29.2006,
        "meta_arg_of_pericenter": 296.0464,
        "meta_mean_anomaly": 64.0142,
        "meta_ephemeris_type": 0,
        "meta_classification_type": "U",
        "meta_norad_cat_id": 43783,
        "meta_element_set_no": 999,
        "meta_rev_at_epoch": 38450,
        "meta_bstar": 2.1221197e-05,
        "meta_mean_motion_dot": 2.04e-06,
        "meta_mean_motion_ddot": 0,
        "tle_line1": "1 43783U 18099AB  25354.34280507  .00000204  00000+0  21221-4 0  9997",
        "tle_line2": "2 43783  97.4530  29.2006 0005992 296.0464  64.0142 14.99364446384507"
      },
      "geometry": {
        "type": "Point",
        "coordinates": [
          -146.8018190018018,
          22.703485953410738
        ]
      }
    },
    {
      "type": "Feature",
      "properties": {
        "norad_id": 43831,
        "name": "SAUDISAT 5A",
        "group": "resource",
        "lat": -64.47343534874119,
        "lon": 70.91419728823371,
        "alt_km": 499.12011874304335,
        "timestamp": "2025-12-21T05:44:51.233544+00:00",
        "meta_object_name": "SAUDISAT 5A",
        "meta_object_id": "2018-102A",
        "meta_epoch": "2025-12-20T22:09:50.579712",
        "meta_mean_motion": 15.25748695,
        "meta_eccentricity": 0.00113782,
        "meta_inclination": 97.3343,
        "meta_ra_of_asc_node": 54.9569,
        "meta_arg_of_pericenter": 51.0777,
        "meta_mean_anomaly": 309.1474,
        "meta_ephemeris_type": 0,
        "meta_classification_type": "U",
        "meta_norad_cat_id": 43831,
        "meta_element_set_no": 999,
        "meta_rev_at_epoch": 38847,
        "meta_bstar": 0.00017187861,
        "meta_mean_motion_dot": 4.321e-05,
        "meta_mean_motion_ddot": 0,
        "tle_line1": "1 43831U 18102A   25354.92350208  .00004321  00000+0  17188-3 0  9996",
        "tle_line2": "2 43831  97.3343  54.9569 0011378  51.0777 309.1474 15.25748695388475"
      },
      "geometry": {
        "type": "Point",
        "coordinates": [
          70.91419728823371,
          -64.47343534874119
        ]
      }
    },
    {
      "type": "Feature",
      "properties": {
        "norad_id": 43833,
        "name": "SAUDISAT 5B",
        "group": "resource",
        "lat": -2.573133498527708,
        "lon": 58.35263936923734,
        "alt_km": 486.07536012037326,
        "timestamp": "2025-12-21T05:44:51.233554+00:00",
        "meta_object_name": "SAUDISAT 5B",
        "meta_object_id": "2018-102C",
        "meta_epoch": "2025-12-20T21:53:26.324736",
        "meta_mean_motion": 15.26097319,
        "meta_eccentricity": 0.00121016,
        "meta_inclination": 97.3438,
        "meta_ra_of_asc_node": 57.6989,
        "meta_arg_of_pericenter": 53.1325,
        "meta_mean_anomaly": 307.1021,
        "meta_ephemeris_type": 0,
        "meta_classification_type": "U",
        "meta_norad_cat_id": 43833,
        "meta_element_set_no": 999,
        "meta_rev_at_epoch": 38858,
        "meta_bstar": 0.00015983616,
        "meta_mean_motion_dot": 4.057e-05,
        "meta_mean_motion_ddot": 0,
        "tle_line1": "1 43833U 18102C   25354.91211024  .00004057  00000+0  15984-3 0  9997",
        "tle_line2": "2 43833  97.3438  57.6989 0012101  53.1325 307.1021 15.26097319388584"
      },
      "geometry": {
        "type": "Point",
        "coordinates": [
          58.35263936923734,
          -2.573133498527708
        ]
      }
    },
    {
      "type": "Feature",
      "properties": {
        "norad_id": 44622,
        "name": "GAOFEN-10R",
        "group": "resource",
        "lat": 58.86797244840156,
        "lon": -70.73532009301748,
        "alt_km": 610.9938777984653,
        "timestamp": "2025-12-21T05:44:51.233565+00:00",
        "meta_object_name": "GAOFEN-10R",
        "meta_object_id": "2019-066A",
        "meta_epoch": "2025-12-20T23:00:03.644928",
        "meta_mean_motion": 14.82817234,
        "meta_eccentricity": 0.00073201,
        "meta_inclination": 98.0289,
        "meta_ra_of_asc_node": 302.497,
        "meta_arg_of_pericenter": 18.0575,
        "meta_mean_anomaly": 342.0896,
        "meta_ephemeris_type": 0,
        "meta_classification_type": "U",
        "meta_norad_cat_id": 44622,
        "meta_element_set_no": 999,
        "meta_rev_at_epoch": 33596,
        "meta_bstar": 0.00014382484,
        "meta_mean_motion_dot": 1.109e-05,
        "meta_mean_motion_ddot": 0,
        "tle_line1": "1 44622U 19066A   25354.95837552  .00001109  00000+0  14382-3 0  9994",
        "tle_line2": "2 44622  98.0289 302.4970 0007320  18.0575 342.0896 14.82817234335967"
      },
      "geometry": {
        "type": "Point",
        "coordinates": [
          -70.73532009301748,
          58.86797244840156
        ]
      }
    },
    {
      "type": "Feature",
      "properties": {
        "norad_id": 44804,
        "name": "CARTOSAT-3",
        "group": "resource",
        "lat": -72.70246981643412,
        "lon": -150.15967288099918,
        "alt_km": 524.6503848563498,
        "timestamp": "2025-12-21T05:44:51.233575+00:00",
        "meta_object_name": "CARTOSAT-3",
        "meta_object_id": "2019-081A",
        "meta_epoch": "2025-12-20T22:18:31.241664",
        "meta_mean_motion": 15.19210768,
        "meta_eccentricity": 0.00138868,
        "meta_inclination": 97.4577,
        "meta_ra_of_asc_node": 54.4089,
        "meta_arg_of_pericenter": 57.5771,
        "meta_mean_anomaly": 302.6805,
        "meta_ephemeris_type": 0,
        "meta_classification_type": "U",
        "meta_norad_cat_id": 44804,
        "meta_element_set_no": 999,
        "meta_rev_at_epoch": 33640,
        "meta_bstar": 6.5463609e-05,
        "meta_mean_motion_dot": 1.312e-05,
        "meta_mean_motion_ddot": 0,
        "tle_line1": "1 44804U 19081A   25354.92952826  .00001312  00000+0  65464-4 0  9996",
        "tle_line2": "2 44804  97.4577  54.4089 0013886  57.5771 302.6805 15.19210768336409"
      },
      "geometry": {
        "type": "Point",
        "coordinates": [
          -150.15967288099918,
          -72.70246981643412
        ]
      }
    },
    {
      "type": "Feature",
      "properties": {
        "norad_id": 44819,
        "name": "GAOFEN-12 01",
        "group": "resource",
        "lat": -78.24654093324662,
        "lon": 140.00696278611508,
        "alt_km": 634.0969242067131,
        "timestamp": "2025-12-21T05:44:51.233585+00:00",
        "meta_object_name": "GAOFEN-12 01",
        "meta_object_id": "2019-082A",
        "meta_epoch": "2025-12-20T22:05:02.376096",
        "meta_mean_motion": 14.80666093,
        "meta_eccentricity": 0.00018568,
        "meta_inclination": 97.8124,
        "meta_ra_of_asc_node": 0.9864,
        "meta_arg_of_pericenter": 193.3668,
        "meta_mean_anomaly": 166.7496,
        "meta_ephemeris_type": 0,
        "meta_classification_type": "U",
        "meta_norad_cat_id": 44819,
        "meta_element_set_no": 999,
        "meta_rev_at_epoch": 32771,
        "meta_bstar": 5.0464436e-05,
        "meta_mean_motion_dot": 3.37e-06,
        "meta_mean_motion_ddot": 0,
        "tle_line1": "1 44819U 19082A   25354.92016639  .00000337  00000+0  50464-4 0  9996",
        "tle_line2": "2 44819  97.8124   0.9864 0001856 193.3668 166.7496 14.80666093327714"
      },
      "geometry": {
        "type": "Point",
        "coordinates": [
          140.00696278611508,
          -78.24654093324662
        ]
      }
    },
    {
      "type": "Feature",
      "properties": {
        "norad_id": 44873,
        "name": "CSG-1",
        "group": "resource",
        "lat": 56.79292159008421,
        "lon": 164.2193617183278,
        "alt_km": 616.1954315745725,
        "timestamp": "2025-12-21T05:44:51.233595+00:00",
        "meta_object_name": "CSG-1",
        "meta_object_id": "2019-092A",
        "meta_epoch": "2025-12-20T23:00:26.787168",
        "meta_mean_motion": 14.82150364,
        "meta_eccentricity": 0.00014736,
        "meta_inclination": 97.8803,
        "meta_ra_of_asc_node": 176.159,
        "meta_arg_of_pericenter": 86.0616,
        "meta_mean_anomaly": 274.0765,
        "meta_ephemeris_type": 0,
        "meta_classification_type": "U",
        "meta_norad_cat_id": 44873,
        "meta_element_set_no": 999,
        "meta_rev_at_epoch": 32507,
        "meta_bstar": 5.6658261e-05,
        "meta_mean_motion_dot": 3.99e-06,
        "meta_mean_motion_ddot": 0,
        "tle_line1": "1 44873U 19092A   25354.95864337  .00000399  00000+0  56658-4 0  9995",
        "tle_line2": "2 44873  97.8803 176.1590 0001473  86.0616 274.0765 14.82150364325076"
      },
      "geometry": {
        "type": "Point",
        "coordinates": [
          164.2193617183278,
          56.79292159008421
        ]
      }
    }
  ]
}